[{"OBJECT_NAME":"STARLINK-1372","OBJECT_ID":"2020-025N","EPOCH":"2026-03-09T09:08:39.449760","MEAN_MOTION":15.30207893,"ECCENTRICITY":0.00011953,"INCLINATION":53.1606,"RA_OF_ASC_NODE":102.4567,"ARG_OF_PERICENTER":90.9639,"MEAN_ANOMALY":269.1499,"EPHEMERIS_TYPE":0,"CLASSIFICATION_TYPE":"U","NORAD_CAT_ID":45543,"ELEMENT_SET_NO":999,"REV_AT_EPOCH":32422,"BSTAR":9.6690214e-5,"MEAN_MOTION_DOT":2.506e-5,"MEAN_MOTION_DDOT":0},{"OBJECT_NAME":"FENGYUN 1C DEB","OBJECT_ID":"1999-025AJJ","EPOCH":"2026-03-09T18:40:58.380672","MEAN_MOTION":15.18672988,"ECCENTRICITY":0.00638575,"INCLINATION":98.7226,"RA_OF_ASC_NODE":259.4919,"ARG_OF_PERICENTER":168.3626,"MEAN_ANOMALY":191.9098,"EPHEMERIS_TYPE":0,"CLASSIFICATION_TYPE":"U","NORAD_CAT_ID":30520,"ELEMENT_SET_NO":999,"REV_AT_EPOCH":2360,"BSTAR":0.0014000942,"MEAN_MOTION_DOT":0.0003064,"MEAN_MOTION_DDOT":0}]
